[{"OBJECT_NAME":"STARLINK-30945","OBJECT_ID":"2024-019X","EPOCH":"2026-03-09T12:20:52.075104","MEAN_MOTION":15.27576786,"ECCENTRICITY":0.00011418,"INCLINATION":42.9976,"RA_OF_ASC_NODE":250.0661,"ARG_OF_PERICENTER":279.3375,"MEAN_ANOMALY":80.7347,"EPHEMERIS_TYPE":0,"CLASSIFICATION_TYPE":"U","NORAD_CAT_ID":58874,"ELEMENT_SET_NO":999,"REV_AT_EPOCH":11905,"BSTAR":1.4061112e-5,"MEAN_MOTION_DOT":1.25e-6,"MEAN_MOTION_DDOT":0},{"OBJECT_NAME":"TRANSPORTER-1 OBJECT AA","OBJECT_ID":"2021-006AA","EPOCH":"2026-03-09T22:58:14.761920","MEAN_MOTION":15.29982294,"ECCENTRICITY":0.00086604,"INCLINATION":97.2381,"RA_OF_ASC_NODE":112.457,"ARG_OF_PERICENTER":185.709,"MEAN_ANOMALY":174.4054,"EPHEMERIS_TYPE":0,"CLASSIFICATION_TYPE":"U","NORAD_CAT_ID":47437,"ELEMENT_SET_NO":999,"REV_AT_EPOCH":28414,"BSTAR":0.0002197941,"MEAN_MOTION_DOT":6.312e-5,"MEAN_MOTION_DDOT":0}]
